H1 CPF 01  gfz 2021 10 14 00  7871 tandemx   
H2 1003001  6202 36605    2021 10 14 00 59 42 2021 10 19 00 00 42   120 1 1  0 0 0
H9
10 0 59505  55422.000000  0    2337819.687    837025.270   6414694.820
10 0 59505  55542.000000  0    1683342.863    239765.530   6664533.322
10 0 59505  55662.000000  0     989108.276   -349877.306   6797252.089
10 0 59505  55782.000000  0     267461.124   -921026.374   6810536.147
10 0 59505  55902.000000  0    -468594.057  -1463350.477   6704156.048
10 0 59505  56022.000000  0   -1205627.639  -1967250.735   6479970.883
10 0 59505  56142.000000  0   -1930028.746  -2424030.330   6141896.113
10 0 59505  56262.000000  0   -2628254.126  -2826044.357   5695840.039
10 0 59505  56382.000000  0   -3287082.576  -3166830.821   5149609.234
10 0 59505  56502.000000  0   -3893870.502  -3441218.305   4512777.306
10 0 59505  56622.000000  0   -4436798.899  -3645406.860   3796520.534
10 0 59505  56742.000000  0   -4905108.503  -3777021.619   3013424.817
10 0 59505  56862.000000  0   -5289318.987  -3835138.297   2177266.248
10 0 59505  56982.000000  0   -5581427.394  -3820279.865   1302766.310
10 0 59505  57102.000000  0   -5775078.630  -3734382.347    405326.796
10 0 59505  57222.000000  0   -5865704.573  -3580731.296   -499248.822
10 0 59505  57342.000000  0   -5850628.101  -3363870.904  -1395042.794
10 0 59505  57462.000000  0   -5729127.885  -3089486.748  -2266313.295
10 0 59505  57582.000000  0   -5502462.430  -2764266.039  -3097777.825
10 0 59505  57702.000000  0   -5173855.202  -2395740.317  -3874885.233
10 0 59505  57822.000000  0   -4748440.990  -1992113.911  -4584070.741
10 0 59505  57942.000000  0   -4233176.005  -1562083.364  -5212989.690
10 0 59505  58062.000000  0   -3636713.868  -1114651.475  -5750726.322
10 0 59505  58182.000000  0   -2969251.060   -658940.302  -6187973.484
10 0 59505  58302.000000  0   -2242346.373   -204007.689  -6517182.311
10 0 59505  58422.000000  0   -1468717.161    241328.994  -6732680.991
10 0 59505  58542.000000  0    -662017.338    668658.583  -6830761.190
10 0 59505  58662.000000  0     163398.923   1070130.637  -6809734.811
10 0 59505  58782.000000  0     992725.552   1438595.317  -6669959.691
10 0 59505  58902.000000  0    1810963.857   1767727.584  -6413836.939
10 0 59505  59022.000000  0    2603188.570   2052134.892  -6045774.128
10 0 59505  59142.000000  0    3354816.215   2287445.126  -5572116.973
10 0 59505  59262.000000  0    4051870.527   2470373.997  -5001050.065
10 0 59505  59382.000000  0    4681243.932   2598771.725  -4342467.885
10 0 59505  59502.000000  0    5230949.325   2671647.180  -3607813.510
10 0 59505  59622.000000  0    5690354.984   2689168.566  -2809888.100
10 0 59505  59742.000000  0    6050400.075   2652641.018  -1962634.761
10 0 59505  59862.000000  0    6303784.129   2564460.193  -1080895.563
10 0 59505  59982.000000  0    6445123.722   2428042.522   -180149.619
10 0 59505  60102.000000  0    6471073.567   2247733.629    723765.030
10 0 59505  60222.000000  0    6380405.423   2028696.259   1614936.796
10 0 59505  60342.000000  0    6174048.118   1776783.203   2477668.476
10 0 59505  60462.000000  0    5855082.352   1498395.028   3296763.690
10 0 59505  60582.000000  0    5428691.707   1200327.967   4057801.987
10 0 59505  60702.000000  0    4902070.490    889615.682   4747397.716
10 0 59505  60822.000000  0    4284293.828    573369.836   5353436.203
10 0 59505  60942.000000  0    3586151.820    258621.786   5865286.450
10 0 59505  61062.000000  0    2819950.587    -47829.975   6273983.232
10 0 59505  61182.000000  0    1999288.793   -339562.233   6572377.223
10 0 59505  61302.000000  0    1138812.435   -610658.460   6755254.921
10 0 59505  61422.000000  0     253950.045   -855827.057   6819425.297
10 0 59505  61542.000000  0    -639365.214  -1070503.316   6763770.755
10 0 59505  61662.000000  0   -1524981.724  -1250934.253   6589264.532
10 0 59505  61782.000000  0   -2386820.047  -1394244.153   6298953.635
10 0 59505  61902.000000  0   -3209162.783  -1498479.581   5897909.281
10 0 59505  62022.000000  0   -3976943.166  -1562634.840   5393146.254
10 0 59505  62142.000000  0   -4676026.441  -1586657.771   4793506.192
10 0 59505  62262.000000  0   -5293477.001  -1571434.154   4109507.592
10 0 59505  62382.000000  0   -5817805.489  -1518750.766   3353164.092
10 0 59505  62502.000000  0   -6239190.565  -1431238.072   2537775.523
10 0 59505  62622.000000  0   -6549673.073  -1312294.754   1677694.717
10 0 59505  62742.000000  0   -6743316.548  -1165994.891    788069.723
10 0 59505  62862.000000  0   -6816326.018   -996979.399   -115430.726
10 0 59505  62982.000000  0   -6767124.298   -810335.022  -1016901.848
10 0 59505  63102.000000  0   -6596383.286   -611464.107  -1900491.933
10 0 59505  63222.000000  0   -6307009.801   -405948.571  -2750688.013
10 0 59505  63342.000000  0   -5904088.707   -199412.511  -3552594.137
10 0 59505  63462.000000  0   -5394781.514      2615.195  -4292196.058
10 0 59505  63582.000000  0   -4788185.347    194833.654  -4956604.378
10 0 59505  63702.000000  0   -4095158.032    372295.041  -5534273.830
10 0 59505  63822.000000  0   -3328112.521    530518.626  -6015195.648
10 0 59505  63942.000000  0   -2500786.124    665591.409  -6391059.169
10 0 59505  64062.000000  0   -1627991.604    774254.314  -6655383.366
10 0 59505  64182.000000  0    -725351.863    853972.577  -6803618.321
10 0 59505  64302.000000  0     190975.652    902989.270  -6833213.599
10 0 59505  64422.000000  0    1104579.911    920360.662  -6743657.489
10 0 59505  64542.000000  0    1999083.541    905973.576  -6536487.678
10 0 59505  64662.000000  0    2858430.750    860544.712  -6215267.666
10 0 59505  64782.000000  0    3667171.040    785601.696  -5785531.441
10 0 59505  64902.000000  0    4410733.957    683445.394  -5254697.326
10 0 59505  65022.000000  0    5075692.924    557094.659  -4631951.880
10 0 59505  65142.000000  0    5650013.829    410214.563  -3928102.074
10 0 59505  65262.000000  0    6123281.389    247028.348  -3155396.995
10 0 59505  65382.000000  0    6486899.155     72215.480  -2327322.412
10 0 59505  65502.000000  0    6734259.560   -109202.695  -1458369.135
10 0 59505  65622.000000  0    6860876.291   -291986.843   -563778.099
10 0 59505  65742.000000  0    6864475.819   -470809.681    340730.680
10 0 59505  65862.000000  0    6745046.435   -640389.993   1239240.964
10 0 59505  65982.000000  0    6504841.457   -795626.581   2115928.865
10 0 59505  66102.000000  0    6148336.920   -931728.593   2955351.552
10 0 59505  66222.000000  0    5682142.298  -1044338.774   3742727.289
10 0 59505  66342.000000  0    5114871.154  -1129646.410   4464200.816
10 0 59505  66462.000000  0    4456972.437  -1184488.369   5107090.658
10 0 59505  66582.000000  0    3720527.526  -1206433.427   5660111.591
10 0 59505  66702.000000  0    2919019.093  -1193849.426   6113570.043
10 0 59505  66822.000000  0    2067076.363  -1145952.762   6459528.715
10 0 59505  66942.000000  0    1180203.313  -1062838.685   6691940.121
10 0 59505  67062.000000  0     274492.343   -945491.526   6806746.944
10 0 59505  67182.000000  0    -633669.090   -795774.563   6801947.186
10 0 59505  67302.000000  0   -1527893.955   -616400.639   6677625.791
10 0 59505  67422.000000  0   -2392089.814   -410883.124   6435952.979
10 0 59505  67542.000000  0   -3210747.168   -183468.171   6081149.307
10 0 59505  67662.000000  0   -3969219.101     60950.699   5619417.653
10 0 59505  67782.000000  0   -4653987.697    316934.269   5058840.993
10 0 59505  67902.000000  0   -5252911.415    578613.635   4409246.565
10 0 59505  68022.000000  0   -5755448.944    839818.773   3682037.919
10 0 59505  68142.000000  0   -6152853.401   1094217.068   2889997.263
10 0 59505  68262.000000  0   -6438334.352   1335458.778   2047061.337
10 0 59505  68382.000000  0   -6607182.694   1557325.513   1168073.496
10 0 59505  68502.000000  0   -6656855.653   1753878.848    268516.460
10 0 59505  68622.000000  0   -6587017.193   1919604.855   -635769.206
10 0 59505  68742.000000  0   -6399533.274   2049550.061  -1528872.980
10 0 59505  68862.000000  0   -6098423.573   2139446.336  -2395102.266
10 0 59505  68982.000000  0   -5689770.333   2185821.869  -3219265.852
10 0 59505  69102.000000  0   -5181585.482   2186094.302  -3986945.158
10 0 59505  69222.000000  0   -4583641.816   2138643.849  -4684746.492
10 0 59505  69342.000000  0   -3907273.544   2042865.729  -5300530.542
10 0 59505  69462.000000  0   -3165151.866   1899201.231  -5823615.250
10 0 59505  69582.000000  0   -2371041.756   1709147.189  -6244951.069
10 0 59505  69702.000000  0   -1539542.694   1475243.615  -6557267.181
10 0 59505  69822.000000  0    -685819.656   1201039.918  -6755184.422
10 0 59505  69942.000000  0     174669.257    891040.771  -6835297.578
10 0 59505  70062.000000  0    1026445.201    550633.475  -6796227.566
10 0 59505  70182.000000  0    1854280.988    185996.314  -6638644.943
10 0 59505  70302.000000  0    2643467.588   -196010.955  -6365258.776
10 0 59505  70422.000000  0    3380070.620   -587971.977  -5980775.694
10 0 59505  70542.000000  0    4051173.939   -982053.211  -5491826.183
10 0 59505  70662.000000  0    4645106.229  -1370155.365  -4906861.865
10 0 59505  70782.000000  0    5151649.447  -1744076.209  -4236021.384
10 0 59505  70902.000000  0    5562222.577  -2095680.212  -3490965.115
10 0 59505  71022.000000  0    5870037.460  -2417071.942  -2684680.802
10 0 59505  71142.000000  0    6070222.308  -2700769.767  -1831261.764
10 0 59505  71262.000000  0    6159908.838  -2939875.303   -945661.637
10 0 59505  71382.000000  0    6138281.312  -3128234.584    -43430.277
10 0 59505  71502.000000  0    6006584.826  -3260586.816    859564.741
10 0 59505  71622.000000  0    5768093.194  -3332696.878   1747425.118
10 0 59505  71742.000000  0    5428033.785  -3341466.976   2604512.221
10 0 59505  71862.000000  0    4993472.640  -3285024.966   3415730.429
99
